start=new Date('2021-10-14T00:00:00.000Z').valueOf();
sats=[{"OBJECT_ID":"2021-009BA","DECAY_DATE":null,"ELEMENT_SET_NO":"999","CENTER_NAME":"EARTH","SEMIMAJOR_AXIS":"6925.324","ARG_OF_PERICENTER":"111.9885","MEAN_ELEMENT_THEORY":"SGP4","TLE_LINE1":"1 47596U 21009BA  21286.65171659  .00000436  00000-0  48125-4 0  9999","MEAN_ANOMALY":"248.1269","LAUNCH_DATE":"2021-02-04","MEAN_MOTION":"15.06408132","EPOCH":"2021-10-13T15:38:28.313376","BSTAR":"0.00004812500000","MEAN_MOTION_DOT":"0.00000436","RA_OF_ASC_NODE":"60.3831","OBJECT_TYPE":"PAYLOAD","MEAN_MOTION_DDOT":"0.0000000000000","APOAPSIS":"548.267","REF_FRAME":"TEME","GP_ID":"187100971","SITE":"AFETR","TLE_LINE2":"2 47596  53.0575  60.3831 0001557 111.9885 248.1269 15.06408132 38148","EPHEMERIS_TYPE":"0","INCLINATION":"53.0575","ECCENTRICITY":"0.00015570","PERIAPSIS":"546.110","PERIOD":"95.592","OBJECT_NAME":"STARLINK-2001","TIME_SYSTEM":"UTC","REV_AT_EPOCH":"3814","FILE":"3161149","COUNTRY_CODE":"US","NORAD_CAT_ID":"47596","CLASSIFICATION_TYPE":"U","RCS_SIZE":"LARGE"},{"RCS_SIZE":"LARGE","CLASSIFICATION_TYPE":"U","COUNTRY_CODE":"US","FILE":"3161149","NORAD_CAT_ID":"47597","OBJECT_NAME":"STARLINK-2002","TIME_SYSTEM":"UTC","REV_AT_EPOCH":"3814","PERIOD":"95.592","ECCENTRICITY":"0.00017480","PERIAPSIS":"545.996","EPHEMERIS_TYPE":"0","INCLINATION":"53.0565","SITE":"AFETR","TLE_LINE2":"2 47597  53.0565  60.4179 0001748  99.7008 260.4179 15.06402185 38145","GP_ID":"187101221","MEAN_MOTION_DDOT":"0.0000000000000","RA_OF_ASC_NODE":"60.4179","OBJECT_TYPE":"PAYLOAD","REF_FRAME":"TEME","APOAPSIS":"548.417","EPOCH":"2021-10-13T15:27:51.808896","MEAN_MOTION_DOT":"0.00001802","BSTAR":"0.00013982000000","MEAN_MOTION":"15.06402185","TLE_LINE1":"1 47597U 21009BB  21286.64434964  .00001802  00000-0  13982-3 0  9990","MEAN_ANOMALY":"260.4179","LAUNCH_DATE":"2021-02-04","MEAN_ELEMENT_THEORY":"SGP4","SEMIMAJOR_AXIS":"6925.342","CENTER_NAME":"EARTH","ARG_OF_PERICENTER":"99.7008","ELEMENT_SET_NO":"999","OBJECT_ID":"2021-009BB","DECAY_DATE":null},{"MEAN_MOTION":"15.06405676","MEAN_ANOMALY":"255.4069","TLE_LINE1":"1 47598U 21009BC  21286.58813906  .00001548  00000-0  12278-3 0  9995","LAUNCH_DATE":"2021-02-04","OBJECT_TYPE":"PAYLOAD","RA_OF_ASC_NODE":"30.6273","MEAN_MOTION_DDOT":"0.0000000000000","APOAPSIS":"548.487","REF_FRAME":"TEME","EPOCH":"2021-10-13T14:06:55.214784","BSTAR":"0.00012278000000","MEAN_MOTION_DOT":"0.00001548","OBJECT_ID":"2021-009BC","DECAY_DATE":null,"SEMIMAJOR_AXIS":"6925.331","CENTER_NAME":"EARTH","ARG_OF_PERICENTER":"104.7127","MEAN_ELEMENT_THEORY":"SGP4","ELEMENT_SET_NO":"999","TIME_SYSTEM":"UTC","OBJECT_NAME":"STARLINK-2003","REV_AT_EPOCH":"3856","ECCENTRICITY":"0.00018640","PERIAPSIS":"545.905","PERIOD":"95.592","CLASSIFICATION_TYPE":"U","RCS_SIZE":"LARGE","FILE":"3161149","COUNTRY_CODE":"US","NORAD_CAT_ID":"47598","SITE":"AFETR","TLE_LINE2":"2 47598  53.0649  30.6273 0001864 104.7127 255.4069 15.06405676 38567","GP_ID":"187101973","EPHEMERIS_TYPE":"0","INCLINATION":"53.0649"},{"ELEMENT_SET_NO":"999","MEAN_ELEMENT_THEORY":"SGP4","CENTER_NAME":"EARTH","SEMIMAJOR_AXIS":"6925.349","ARG_OF_PERICENTER":"118.0490","OBJECT_ID":"2021-009BD","DECAY_DATE":null,"EPOCH":"2021-10-13T10:41:14.341632","MEAN_MOTION_DOT":"-0.00001664","BSTAR":"-0.00009281600000","MEAN_MOTION_DDOT":"0.0000000000000","OBJECT_TYPE":"PAYLOAD","RA_OF_ASC_NODE":"21.2941","REF_FRAME":"TEME","APOAPSIS":"548.247","TLE_LINE1":"1 47599U 21009BD  21286.44530488 -.00001664  00000-0 -92816-4 0  9990","MEAN_ANOMALY":"242.0650","LAUNCH_DATE":"2021-02-04","MEAN_MOTION":"15.06399738","EPHEMERIS_TYPE":"0","INCLINATION":"53.0565","GP_ID":"187069083","SITE":"AFETR","TLE_LINE2":"2 47599  53.0565  21.2941 0001491 118.0490 242.0650 15.06399738 38671","COUNTRY_CODE":"US","FILE":"3160689","NORAD_CAT_ID":"47599","RCS_SIZE":"LARGE","CLASSIFICATION_TYPE":"U","PERIOD":"95.592","PERIAPSIS":"546.182","ECCENTRICITY":"0.00014910","OBJECT_NAME":"STARLINK-2004","TIME_SYSTEM":"UTC","REV_AT_EPOCH":"3867"},{"ELEMENT_SET_NO":"999","SEMIMAJOR_AXIS":"6925.345","ARG_OF_PERICENTER":"156.9580","CENTER_NAME":"EARTH","MEAN_ELEMENT_THEORY":"SGP4","DECAY_DATE":null,"OBJECT_ID":"2021-009BE","BSTAR":"0.00012029000000","MEAN_MOTION_DOT":"0.00001509","EPOCH":"2021-10-13T12:57:53.024256","APOAPSIS":"553.380","REF_FRAME":"TEME","RA_OF_ASC_NODE":"20.8622","OBJECT_TYPE":"PAYLOAD","MEAN_MOTION_DDOT":"0.0000000000000","LAUNCH_DATE":"2021-02-04","MEAN_ANOMALY":"203.1811","TLE_LINE1":"1 47600U 21009BE  21286.54019704  .00001509  00000-0  12029-3 0  9990","MEAN_MOTION":"15.06401319","INCLINATION":"53.0629","EPHEMERIS_TYPE":"0","GP_ID":"187067831","TLE_LINE2":"2 47600  53.0629  20.8622 0008910 156.9580 203.1811 15.06401319 38698","SITE":"AFETR","NORAD_CAT_ID":"47600","FILE":"3160689","COUNTRY_CODE":"US","CLASSIFICATION_TYPE":"U","RCS_SIZE":"LARGE","ECCENTRICITY":"0.00089100","PERIAPSIS":"541.039","PERIOD":"95.592","REV_AT_EPOCH":"3869","TIME_SYSTEM":"UTC","OBJECT_NAME":"STARLINK-2005"},{"MEAN_ANOMALY":"269.5413","TLE_LINE1":"1 47601U 21009BF  21286.51534268 -.00000789  00000-0 -34113-4 0  9995","LAUNCH_DATE":"2021-02-04","MEAN_MOTION":"15.06399250","EPOCH":"2021-10-13T12:22:05.607552","MEAN_MOTION_DOT":"-0.00000789","BSTAR":"-0.00003411300000","MEAN_MOTION_DDOT":"0.0000000000000","OBJECT_TYPE":"PAYLOAD","RA_OF_ASC_NODE":"20.9834","REF_FRAME":"TEME","APOAPSIS":"548.118","OBJECT_ID":"2021-009BF","DECAY_DATE":null,"ELEMENT_SET_NO":"999","MEAN_ELEMENT_THEORY":"SGP4","SEMIMAJOR_AXIS":"6925.351","ARG_OF_PERICENTER":"90.5725","CENTER_NAME":"EARTH","PERIOD":"95.592","ECCENTRICITY":"0.00013030","PERIAPSIS":"546.313","OBJECT_NAME":"STARLINK-2006","TIME_SYSTEM":"UTC","REV_AT_EPOCH":"3929","COUNTRY_CODE":"US","FILE":"3160965","NORAD_CAT_ID":"47601","RCS_SIZE":"LARGE","CLASSIFICATION_TYPE":"U","GP_ID":"187075890","SITE":"AFETR","TLE_LINE2":"2 47601  53.0565  20.9834 0001303  90.5725 269.5413 15.06399250 39298","EPHEMERIS_TYPE":"0","INCLINATION":"53.0565"},{"OBJECT_ID":"2021-009BG","DECAY_DATE":null,"ELEMENT_SET_NO":"999","CENTER_NAME":"EARTH","SEMIMAJOR_AXIS":"6925.353","ARG_OF_PERICENTER":"99.5787","MEAN_ELEMENT_THEORY":"SGP4","TLE_LINE1":"1 47602U 21009BG  21286.47018911 -.00000317  00000-0 -23885-5 0  9995","MEAN_ANOMALY":"260.5380","LAUNCH_DATE":"2021-02-04","MEAN_MOTION":"15.06398681","EPOCH":"2021-10-13T11:17:04.339104","BSTAR":"-0.00000238850000","MEAN_MOTION_DOT":"-0.00000317","RA_OF_ASC_NODE":"31.1901","OBJECT_TYPE":"PAYLOAD","MEAN_MOTION_DDOT":"0.0000000000000","APOAPSIS":"548.311","REF_FRAME":"TEME","GP_ID":"187068833","SITE":"AFETR","TLE_LINE2":"2 47602  53.0542  31.1901 0001579  99.5787 260.5380 15.06398681 38532","EPHEMERIS_TYPE":"0","INCLINATION":"53.0542","PERIAPSIS":"546.124","ECCENTRICITY":"0.00015790","PERIOD":"95.592","OBJECT_NAME":"STARLINK-2007","TIME_SYSTEM":"UTC","REV_AT_EPOCH":"3853","FILE":"3160689","COUNTRY_CODE":"US","NORAD_CAT_ID":"47602","CLASSIFICATION_TYPE":"U","RCS_SIZE":"LARGE"},{"RCS_SIZE":"LARGE","CLASSIFICATION_TYPE":"U","COUNTRY_CODE":"US","FILE":"3161149","NORAD_CAT_ID":"47603","TIME_SYSTEM":"UTC","OBJECT_NAME":"STARLINK-2008","REV_AT_EPOCH":"3814","PERIOD":"95.592","ECCENTRICITY":"0.00014340","PERIAPSIS":"546.230","EPHEMERIS_TYPE":"0","INCLINATION":"53.0558","SITE":"AFETR","TLE_LINE2":"2 47603  53.0558  60.2356 0001434 103.1674 256.9476 15.06396746 38146","GP_ID":"187101721","MEAN_MOTION_DDOT":"0.0000000000000","OBJECT_TYPE":"PAYLOAD","RA_OF_ASC_NODE":"60.2356","REF_FRAME":"TEME","APOAPSIS":"548.217","EPOCH":"2021-10-13T16:20:56.604480","MEAN_MOTION_DOT":"0.00001144","BSTAR":"0.00009567400000","MEAN_MOTION":"15.06396746","MEAN_ANOMALY":"256.9476","TLE_LINE1":"1 47603U 21009BH  21286.68121070  .00001144  00000-0  95674-4 0  9991","LAUNCH_DATE":"2021-02-04","MEAN_ELEMENT_THEORY":"SGP4","SEMIMAJOR_AXIS":"6925.359","ARG_OF_PERICENTER":"103.1674","CENTER_NAME":"EARTH","ELEMENT_SET_NO":"999","OBJECT_ID":"2021-009BH","DECAY_DATE":null},{"MEAN_ANOMALY":"269.7798","TLE_LINE1":"1 47604U 21009BJ  21286.47755374  .00001543  00000-0  12244-3 0  9993","LAUNCH_DATE":"2021-02-04","MEAN_MOTION":"15.06404049","EPOCH":"2021-10-13T11:27:40.643136","MEAN_MOTION_DOT":"0.00001543","BSTAR":"0.00012244000000","MEAN_MOTION_DDOT":"0.0000000000000","RA_OF_ASC_NODE":"31.1666","OBJECT_TYPE":"PAYLOAD","REF_FRAME":"TEME","APOAPSIS":"548.186","OBJECT_ID":"2021-009BJ","DECAY_DATE":null,"ELEMENT_SET_NO":"999","MEAN_ELEMENT_THEORY":"SGP4","SEMIMAJOR_AXIS":"6925.336","CENTER_NAME":"EARTH","ARG_OF_PERICENTER":"90.3354","PERIOD":"95.592","ECCENTRICITY":"0.00014220","PERIAPSIS":"546.216","TIME_SYSTEM":"UTC","OBJECT_NAME":"STARLINK-2021","REV_AT_EPOCH":"3854","COUNTRY_CODE":"US","FILE":"3160689","NORAD_CAT_ID":"47604","RCS_SIZE":"LARGE","CLASSIFICATION_TYPE":"U","GP_ID":"187068331","SITE":"AFETR","TLE_LINE2":"2 47604  53.0576  31.1666 0001422  90.3354 269.7798 15.06404049 38546","EPHEMERIS_TYPE":"0","INCLINATION":"53.0576"},{"DECAY_DATE":null,"OBJECT_ID":"2021-009BK","MEAN_ELEMENT_THEORY":"SGP4","SEMIMAJOR_AXIS":"6925.337","CENTER_NAME":"EARTH","ARG_OF_PERICENTER":"90.9969","ELEMENT_SET_NO":"999","MEAN_MOTION":"15.06403787","LAUNCH_DATE":"2021-02-04","TLE_LINE1":"1 47605U 21009BK  21286.47387389  .00000261  00000-0  36444-4 0  9996","MEAN_ANOMALY":"269.1181","REF_FRAME":"TEME","APOAPSIS":"548.175","MEAN_MOTION_DDOT":"0.0000000000000","OBJECT_TYPE":"PAYLOAD","RA_OF_ASC_NODE":"31.1781","MEAN_MOTION_DOT":"0.00000261","BSTAR":"0.00003644400000","EPOCH":"2021-10-13T11:22:22.704096","TLE_LINE2":"2 47605  53.0543  31.1781 0001405  90.9969 269.1181 15.06403787 39132","SITE":"AFETR","GP_ID":"187075894","INCLINATION":"53.0543","EPHEMERIS_TYPE":"0","REV_AT_EPOCH":"3913","OBJECT_NAME":"STARLINK-2023","TIME_SYSTEM":"UTC","PERIOD":"95.592","ECCENTRICITY":"0.00014050","PERIAPSIS":"546.229","RCS_SIZE":"LARGE","CLASSIFICATION_TYPE":"U","NORAD_CAT_ID":"47605","COUNTRY_CODE":"US","FILE":"3160965"}];
